{
  "type": "FeatureCollection",
  "features": [
    {
      "type": "Feature",
      "properties": {
        "norad_id": 33986,
        "name": "COSMOS 2251 DEB",
        "group": "cosmos-2251-debris",
        "lat": -60.20394598691829,
        "lon": 162.0315836264615,
        "alt_km": 777.1681852832453,
        "timestamp": "2025-12-07T16:44:04.306035+00:00",
        "meta_object_name": "COSMOS 2251 DEB",
        "meta_object_id": "1993-036FV",
        "meta_epoch": "2025-12-06T08:19:44.057280",
        "meta_mean_motion": 14.43152982,
        "meta_eccentricity": 0.00401201,
        "meta_inclination": 74.0366,
        "meta_ra_of_asc_node": 314.5459,
        "meta_arg_of_pericenter": 28.7657,
        "meta_mean_anomaly": 43.841,
        "meta_ephemeris_type": 0,
        "meta_classification_type": "U",
        "meta_norad_cat_id": 33986,
        "meta_element_set_no": 999,
        "meta_rev_at_epoch": 87936,
        "meta_bstar": 0.0015168962,
        "meta_mean_motion_dot": 5.122e-05,
        "meta_mean_motion_ddot": 0,
        "tle_line1": "1 33986U 93036FV  25340.34703770  .00005122  00000+0  15169-2 0  9998",
        "tle_line2": "2 33986  74.0366 314.5459 0040120  28.7657  43.8410 14.43152982879362"
      },
      "geometry": {
        "type": "Point",
        "coordinates": [
          162.0315836264615,
          -60.20394598691829
        ]
      }
    },
    {
      "type": "Feature",
      "properties": {
        "norad_id": 33990,
        "name": "COSMOS 2251 DEB",
        "group": "cosmos-2251-debris",
        "lat": -2.621355008111465,
        "lon": 114.84640018518093,
        "alt_km": 1274.2365923243715,
        "timestamp": "2025-12-07T16:44:04.306046+00:00",
        "meta_object_name": "COSMOS 2251 DEB",
        "meta_object_id": "1993-036FZ",
        "meta_epoch": "2025-12-06T22:17:05.754048",
        "meta_mean_motion": 13.49965032,
        "meta_eccentricity": 0.0407603,
        "meta_inclination": 73.9286,
        "meta_ra_of_asc_node": 295.3237,
        "meta_arg_of_pericenter": 316.6784,
        "meta_mean_anomaly": 94.8698,
        "meta_ephemeris_type": 0,
        "meta_classification_type": "U",
        "meta_norad_cat_id": 33990,
        "meta_element_set_no": 999,
        "meta_rev_at_epoch": 82651,
        "meta_bstar": 0.0024873586,
        "meta_mean_motion_dot": 2.627e-05,
        "meta_mean_motion_ddot": 0,
        "tle_line1": "1 33990U 93036FZ  25340.92853882  .00002627  00000+0  24874-2 0  9997",
        "tle_line2": "2 33990  73.9286 295.3237 0407603 316.6784  94.8698 13.49965032826515"
      },
      "geometry": {
        "type": "Point",
        "coordinates": [
          114.84640018518093,
          -2.621355008111465
        ]
      }
    },
    {
      "type": "Feature",
      "properties": {
        "norad_id": 33992,
        "name": "COSMOS 2251 DEB",
        "group": "cosmos-2251-debris",
        "lat": 40.369671104957376,
        "lon": 1.559962310549567,
        "alt_km": 654.0748749615177,
        "timestamp": "2025-12-07T16:44:04.306056+00:00",
        "meta_object_name": "COSMOS 2251 DEB",
        "meta_object_id": "1993-036GB",
        "meta_epoch": "2025-12-06T11:45:07.240896",
        "meta_mean_motion": 14.66140499,
        "meta_eccentricity": 0.00516396,
        "meta_inclination": 74.0239,
        "meta_ra_of_asc_node": 349.7913,
        "meta_arg_of_pericenter": 109.6586,
        "meta_mean_anomaly": 42.0435,
        "meta_ephemeris_type": 0,
        "meta_classification_type": "U",
        "meta_norad_cat_id": 33992,
        "meta_element_set_no": 999,
        "meta_rev_at_epoch": 89033,
        "meta_bstar": 0.0012734982,
        "meta_mean_motion_dot": 7.116e-05,
        "meta_mean_motion_ddot": 0,
        "tle_line1": "1 33992U 93036GB  25340.48966714  .00007116  00000+0  12735-2 0  9990",
        "tle_line2": "2 33992  74.0239 349.7913 0051639 109.6586  42.0435 14.66140499890333"
      },
      "geometry": {
        "type": "Point",
        "coordinates": [
          1.559962310549567,
          40.369671104957376
        ]
      }
    },
    {
      "type": "Feature",
      "properties": {
        "norad_id": 33994,
        "name": "COSMOS 2251 DEB",
        "group": "cosmos-2251-debris",
        "lat": 46.17407891159944,
        "lon": -142.91511129228698,
        "alt_km": 745.4109678942641,
        "timestamp": "2025-12-07T16:44:04.306066+00:00",
        "meta_object_name": "COSMOS 2251 DEB",
        "meta_object_id": "1993-036GD",
        "meta_epoch": "2025-12-06T22:40:22.092960",
        "meta_mean_motion": 14.41209376,
        "meta_eccentricity": 0.00234483,
        "meta_inclination": 74.0423,
        "meta_ra_of_asc_node": 201.1332,
        "meta_arg_of_pericenter": 336.4935,
        "meta_mean_anomaly": 128.9125,
        "meta_ephemeris_type": 0,
        "meta_classification_type": "U",
        "meta_norad_cat_id": 33994,
        "meta_element_set_no": 999,
        "meta_rev_at_epoch": 88336,
        "meta_bstar": 0.00016101271,
        "meta_mean_motion_dot": 4.95e-06,
        "meta_mean_motion_ddot": 0,
        "tle_line1": "1 33994U 93036GD  25340.94470015  .00000495  00000+0  16101-3 0  9992",
        "tle_line2": "2 33994  74.0423 201.1332 0023448 336.4935 128.9125 14.41209376883369"
      },
      "geometry": {
        "type": "Point",
        "coordinates": [
          -142.91511129228698,
          46.17407891159944
        ]
      }
    },
    {
      "type": "Feature",
      "properties": {
        "norad_id": 33995,
        "name": "COSMOS 2251 DEB",
        "group": "cosmos-2251-debris",
        "lat": -58.443571693086405,
        "lon": -23.692744216852837,
        "alt_km": 788.4616184186825,
        "timestamp": "2025-12-07T16:44:04.306076+00:00",
        "meta_object_name": "COSMOS 2251 DEB",
        "meta_object_id": "1993-036GE",
        "meta_epoch": "2025-12-06T19:31:54.930144",
        "meta_mean_motion": 14.34721837,
        "meta_eccentricity": 0.00605998,
        "meta_inclination": 74.061,
        "meta_ra_of_asc_node": 130.1919,
        "meta_arg_of_pericenter": 146.2222,
        "meta_mean_anomaly": 214.2815,
        "meta_ephemeris_type": 0,
        "meta_classification_type": "U",
        "meta_norad_cat_id": 33995,
        "meta_element_set_no": 999,
        "meta_rev_at_epoch": 87434,
        "meta_bstar": 0.0018355082,
        "meta_mean_motion_dot": 5.286e-05,
        "meta_mean_motion_ddot": 0,
        "tle_line1": "1 33995U 93036GE  25340.81383021  .00005286  00000+0  18355-2 0  9994",
        "tle_line2": "2 33995  74.0610 130.1919 0060599 146.2222 214.2815 14.34721837874340"
      },
      "geometry": {
        "type": "Point",
        "coordinates": [
          -23.692744216852837,
          -58.443571693086405
        ]
      }
    },
    {
      "type": "Feature",
      "properties": {
        "norad_id": 33999,
        "name": "COSMOS 2251 DEB",
        "group": "cosmos-2251-debris",
        "lat": -56.24567861309983,
        "lon": 86.40400428342028,
        "alt_km": 632.20789318476,
        "timestamp": "2025-12-07T16:44:04.306086+00:00",
        "meta_object_name": "COSMOS 2251 DEB",
        "meta_object_id": "1993-036GJ",
        "meta_epoch": "2025-12-06T20:14:04.075008",
        "meta_mean_motion": 14.83166854,
        "meta_eccentricity": 0.00445936,
        "meta_inclination": 73.9196,
        "meta_ra_of_asc_node": 242.5346,
        "meta_arg_of_pericenter": 139.9223,
        "meta_mean_anomaly": 220.5259,
        "meta_ephemeris_type": 0,
        "meta_classification_type": "U",
        "meta_norad_cat_id": 33999,
        "meta_element_set_no": 999,
        "meta_rev_at_epoch": 89163,
        "meta_bstar": 0.0024558215,
        "meta_mean_motion_dot": 0.0002042,
        "meta_mean_motion_ddot": 0,
        "tle_line1": "1 33999U 93036GJ  25340.84310272  .00020420  00000+0  24558-2 0  9998",
        "tle_line2": "2 33999  73.9196 242.5346 0044593 139.9223 220.5259 14.83166854891638"
      },
      "geometry": {
        "type": "Point",
        "coordinates": [
          86.40400428342028,
          -56.24567861309983
        ]
      }
    },
    {
      "type": "Feature",
      "properties": {
        "norad_id": 34001,
        "name": "COSMOS 2251 DEB",
        "group": "cosmos-2251-debris",
        "lat": -5.982556822527813,
        "lon": -70.8590997557602,
        "alt_km": 758.198040527107,
        "timestamp": "2025-12-07T16:44:04.306097+00:00",
        "meta_object_name": "COSMOS 2251 DEB",
        "meta_object_id": "1993-036GL",
        "meta_epoch": "2025-12-06T22:38:58.126848",
        "meta_mean_motion": 14.37086376,
        "meta_eccentricity": 0.00196875,
        "meta_inclination": 74.0383,
        "meta_ra_of_asc_node": 292.2447,
        "meta_arg_of_pericenter": 14.5977,
        "meta_mean_anomaly": 42.469,
        "meta_ephemeris_type": 0,
        "meta_classification_type": "U",
        "meta_norad_cat_id": 34001,
        "meta_element_set_no": 999,
        "meta_rev_at_epoch": 88063,
        "meta_bstar": 0.00037481497,
        "meta_mean_motion_dot": 1.089e-05,
        "meta_mean_motion_ddot": 0,
        "tle_line1": "1 34001U 93036GL  25340.94372832  .00001089  00000+0  37481-3 0  9994",
        "tle_line2": "2 34001  74.0383 292.2447 0019687  14.5977  42.4690 14.37086376880634"
      },
      "geometry": {
        "type": "Point",
        "coordinates": [
          -70.8590997557602,
          -5.982556822527813
        ]
      }
    }
  ]
}